IRIDIUM 149             
1 43250U 18030B   24272.85517518  .00000514  00000+0  17659-3 0  9993
2 43250  86.4042 192.1451 0002588  83.4518 276.6972 14.34213970340386
IRIDIUM 157             
1 43251U 18030C   24272.87420539  .00000877  00000+0  30600-3 0  9995
2 43251  86.4040 192.1764 0002383  75.5335 284.6125 14.34223812340367
IRIDIUM 145             
1 43253U 18030E   24272.88053692  .00000939  00000+0  32812-3 0  9996
2 43253  86.4041 192.1614 0002550  91.2389 268.9099 14.34224884340358
IRIDIUM 146             
1 43254U 18030F   24272.86151106  .00000863  00000+0  30102-3 0  9990
2 43254  86.4042 192.1837 0002665  90.9090 269.2411 14.34214430340368
IRIDIUM 142             
1 43256U 18030H   24272.86786781  .00000862  00000+0  30080-3 0  9999
2 43256  86.4038 192.1266 0002644  88.7392 271.4106 14.34223091340367
